COSMOS 2350             
1 25315U 98025A   26115.72441999 -.00000121  00000+0  00000+0 0  9993
2 25315  13.9448   4.2321 0004754 176.3875   8.4973  1.00286683102486
SL-12 R/B(2)            
1 25318U 98025D   26115.45114182 -.00000014  00000+0  00000+0 0  9998
2 25318  13.9691   4.2704 0029670 131.5436  61.1912  1.00064523102244
COSMOS 2351             
1 25327U 98027A   26114.88788986  .00001132  00000+0  00000+0 0  9996
2 25327  63.6745 125.4402 7068258 180.0733 179.8483  2.00432208204892
SL-12 R/B(2)            
1 25334U 98028D   26115.12300711 -.00000151  00000+0  00000+0 0  9990
2 25334  17.4249 356.8210 4858914 343.2510 216.3776  1.82179238186084
TITAN 4B CENTAUR R/B    
1 25337U 98029B   26115.01589468 -.00000387  00000+0  00000+0 0  9991
2 25337   7.6642 342.1748 0043864 175.2749 184.6524  1.00336165 25312
TITAN 4B CENTAUR R/B    
1 25349U 96026B   26114.78439604  .00000017  00000+0  00000+0 0  9997
2 25349   6.8752 350.1117 0445407  37.4196 325.5012  0.99564082 25104
DELTA 2 R/B(2)          
1 25360U 98035C   26114.23975779 -.00000172  00000+0  00000+0 0  9993
2 25360  18.8169 191.2419 6904086   1.5118   3.5241  2.11089279214705
CZ-3B R/B               
1 25405U 98044B   26115.24775142 -.00000039  00000+0  19226-2 0  9992
2 25405  19.0567  15.8618 7168290  48.4264 353.6671  2.25763209228892
SL-12 R/B(2)            
1 25465U 98050D   26115.38240898 -.00000078  00000+0  00000+0 0  9995
2 25465  14.7877  84.8371 4948978  63.4994  55.3854  1.82826017 85360
SL-12 R/B(2)            
1 25525U 98065D   26114.80209571 -.00000110  00000+0  00000+0 0  9994
2 25525  17.1504 104.4271 5215396 241.7252  56.5781  1.88161622188815
ARIANE 44LP DEB         
1 25538U 88109E   26115.54013954 -.00000087  00000+0  12215-2 0  9993
2 25538   6.4617 141.1346 7197742 249.7924 333.2615  2.24166893224937
DELTA 2 R/B(2)          
1 25548U 98068C   26115.76858169 -.00000156  00000+0  00000+0 0  9991
2 25548  19.4200 216.3369 6983742 204.2812  93.6904  2.15169126215653
TITAN 34B AGENA D DEB   
1 25588U 83078E   26113.87856698  .00000058  00000+0  21883-3 0  9991
2 25588  63.5091  54.2608 7238174 272.7462  14.2033  2.20154559 55748
FENGYUN 2A AKM          
1 25611U 97029C   26115.79074565 -.00000236  00000+0  00000+0 0  9990
2 25611  13.8578 353.7304 0224733  78.8338 113.0765  1.02879027 48047
SL-12 R/B(2)            
1 25629U 99005D   26115.17027782  .00000028  00000+0  00000+0 0  9994
2 25629  16.4669 186.0653 5363666 271.4779  20.7718  1.89590950188265
