[{"OBJECT_NAME":"COSMOS 2350","OBJECT_ID":"1998-025A","EPOCH":"2026-04-25T17:23:09.887136","MEAN_MOTION":1.00286683,"ECCENTRICITY":0.0004754,"INCLINATION":13.9448,"RA_OF_ASC_NODE":4.2321,"ARG_OF_PERICENTER":176.3875,"MEAN_ANOMALY":8.4973,"EPHEMERIS_TYPE":0,"CLASSIFICATION_TYPE":"U","NORAD_CAT_ID":25315,"ELEMENT_SET_NO":999,"REV_AT_EPOCH":10248,"BSTAR":0,"MEAN_MOTION_DOT":-1.21e-6,"MEAN_MOTION_DDOT":0},{"OBJECT_NAME":"SL-12 R/B(2)","OBJECT_ID":"1998-025D","EPOCH":"2026-04-25T10:49:38.653248","MEAN_MOTION":1.00064523,"ECCENTRICITY":0.0029671,"INCLINATION":13.9691,"RA_OF_ASC_NODE":4.2704,"ARG_OF_PERICENTER":131.5436,"MEAN_ANOMALY":61.1912,"EPHEMERIS_TYPE":0,"CLASSIFICATION_TYPE":"U","NORAD_CAT_ID":25318,"ELEMENT_SET_NO":999,"REV_AT_EPOCH":10224,"BSTAR":0,"MEAN_MOTION_DOT":-1.4e-7,"MEAN_MOTION_DDOT":0},{"OBJECT_NAME":"COSMOS 2351","OBJECT_ID":"1998-027A","EPOCH":"2026-04-24T21:18:33.683040","MEAN_MOTION":2.00432208,"ECCENTRICITY":0.7068258,"INCLINATION":63.6745,"RA_OF_ASC_NODE":125.4402,"ARG_OF_PERICENTER":180.0733,"MEAN_ANOMALY":179.8483,"EPHEMERIS_TYPE":0,"CLASSIFICATION_TYPE":"U","NORAD_CAT_ID":25327,"ELEMENT_SET_NO":999,"REV_AT_EPOCH":20489,"BSTAR":0,"MEAN_MOTION_DOT":1.132e-5,"MEAN_MOTION_DDOT":0},{"OBJECT_NAME":"SL-12 R/B(2)","OBJECT_ID":"1998-028D","EPOCH":"2026-04-25T02:57:07.814304","MEAN_MOTION":1.82179238,"ECCENTRICITY":0.48589146,"INCLINATION":17.4249,"RA_OF_ASC_NODE":356.821,"ARG_OF_PERICENTER":343.251,"MEAN_ANOMALY":216.3776,"EPHEMERIS_TYPE":0,"CLASSIFICATION_TYPE":"U","NORAD_CAT_ID":25334,"ELEMENT_SET_NO":999,"REV_AT_EPOCH":18608,"BSTAR":0,"MEAN_MOTION_DOT":-1.51e-6,"MEAN_MOTION_DDOT":0},{"OBJECT_NAME":"TITAN 4B CENTAUR R/B","OBJECT_ID":"1998-029B","EPOCH":"2026-04-25T00:22:53.300352","MEAN_MOTION":1.00336165,"ECCENTRICITY":0.00438641,"INCLINATION":7.6642,"RA_OF_ASC_NODE":342.1748,"ARG_OF_PERICENTER":175.2749,"MEAN_ANOMALY":184.6524,"EPHEMERIS_TYPE":0,"CLASSIFICATION_TYPE":"U","NORAD_CAT_ID":25337,"ELEMENT_SET_NO":999,"REV_AT_EPOCH":2531,"BSTAR":0,"MEAN_MOTION_DOT":-3.87e-6,"MEAN_MOTION_DDOT":0},{"OBJECT_NAME":"TITAN 4B CENTAUR R/B","OBJECT_ID":"1996-026B","EPOCH":"2026-04-24T18:49:31.816992","MEAN_MOTION":0.99564082,"ECCENTRICITY":0.0445408,"INCLINATION":6.8752,"RA_OF_ASC_NODE":350.1117,"ARG_OF_PERICENTER":37.4196,"MEAN_ANOMALY":325.5012,"EPHEMERIS_TYPE":0,"CLASSIFICATION_TYPE":"U","NORAD_CAT_ID":25349,"ELEMENT_SET_NO":999,"REV_AT_EPOCH":2510,"BSTAR":0,"MEAN_MOTION_DOT":1.7e-7,"MEAN_MOTION_DDOT":0},{"OBJECT_NAME":"DELTA 2 R/B(2)","OBJECT_ID":"1998-035C","EPOCH":"2026-04-24T05:45:15.073056","MEAN_MOTION":2.11089279,"ECCENTRICITY":0.6904086,"INCLINATION":18.8169,"RA_OF_ASC_NODE":191.2419,"ARG_OF_PERICENTER":1.5118,"MEAN_ANOMALY":3.5241,"EPHEMERIS_TYPE":0,"CLASSIFICATION_TYPE":"U","NORAD_CAT_ID":25360,"ELEMENT_SET_NO":999,"REV_AT_EPOCH":21470,"BSTAR":0,"MEAN_MOTION_DOT":-1.72e-6,"MEAN_MOTION_DDOT":0},{"OBJECT_NAME":"CZ-3B R/B","OBJECT_ID":"1998-044B","EPOCH":"2026-04-25T05:56:45.721824","MEAN_MOTION":2.25763209,"ECCENTRICITY":0.7168291,"INCLINATION":19.0567,"RA_OF_ASC_NODE":15.8618,"ARG_OF_PERICENTER":48.4264,"MEAN_ANOMALY":353.6671,"EPHEMERIS_TYPE":0,"CLASSIFICATION_TYPE":"U","NORAD_CAT_ID":25405,"ELEMENT_SET_NO":999,"REV_AT_EPOCH":22889,"BSTAR":0.0019226,"MEAN_MOTION_DOT":-3.9e-7,"MEAN_MOTION_DDOT":0},{"OBJECT_NAME":"SL-12 R/B(2)","OBJECT_ID":"1998-050D","EPOCH":"2026-04-25T09:10:40.135008","MEAN_MOTION":1.82826017,"ECCENTRICITY":0.4948978,"INCLINATION":14.7877,"RA_OF_ASC_NODE":84.8371,"ARG_OF_PERICENTER":63.4994,"MEAN_ANOMALY":55.3854,"EPHEMERIS_TYPE":0,"CLASSIFICATION_TYPE":"U","NORAD_CAT_ID":25465,"ELEMENT_SET_NO":999,"REV_AT_EPOCH":8536,"BSTAR":0,"MEAN_MOTION_DOT":-7.8e-7,"MEAN_MOTION_DDOT":0},{"OBJECT_NAME":"SL-12 R/B(2)","OBJECT_ID":"1998-065D","EPOCH":"2026-04-24T19:15:01.069344","MEAN_MOTION":1.88161622,"ECCENTRICITY":0.5215396,"INCLINATION":17.1504,"RA_OF_ASC_NODE":104.4271,"ARG_OF_PERICENTER":241.7252,"MEAN_ANOMALY":56.5781,"EPHEMERIS_TYPE":0,"CLASSIFICATION_TYPE":"U","NORAD_CAT_ID":25525,"ELEMENT_SET_NO":999,"REV_AT_EPOCH":18881,"BSTAR":0,"MEAN_MOTION_DOT":-1.1e-6,"MEAN_MOTION_DDOT":0},{"OBJECT_NAME":"ARIANE 44LP DEB","OBJECT_ID":"1988-109E","EPOCH":"2026-04-25T12:57:48.056256","MEAN_MOTION":2.24166893,"ECCENTRICITY":0.7197742,"INCLINATION":6.4617,"RA_OF_ASC_NODE":141.1346,"ARG_OF_PERICENTER":249.7924,"MEAN_ANOMALY":333.2615,"EPHEMERIS_TYPE":0,"CLASSIFICATION_TYPE":"U","NORAD_CAT_ID":25538,"ELEMENT_SET_NO":999,"REV_AT_EPOCH":22493,"BSTAR":0.0012215,"MEAN_MOTION_DOT":-8.7e-7,"MEAN_MOTION_DDOT":0},{"OBJECT_NAME":"DELTA 2 R/B(2)","OBJECT_ID":"1998-068C","EPOCH":"2026-04-25T18:26:45.458016","MEAN_MOTION":2.15169126,"ECCENTRICITY":0.6983742,"INCLINATION":19.42,"RA_OF_ASC_NODE":216.3369,"ARG_OF_PERICENTER":204.2812,"MEAN_ANOMALY":93.6904,"EPHEMERIS_TYPE":0,"CLASSIFICATION_TYPE":"U","NORAD_CAT_ID":25548,"ELEMENT_SET_NO":999,"REV_AT_EPOCH":21565,"BSTAR":0,"MEAN_MOTION_DOT":-1.56e-6,"MEAN_MOTION_DDOT":0},{"OBJECT_NAME":"TITAN 34B AGENA D DEB","OBJECT_ID":"1983-078E","EPOCH":"2026-04-23T21:05:08.187072","MEAN_MOTION":2.20154559,"ECCENTRICITY":0.7238174,"INCLINATION":63.5091,"RA_OF_ASC_NODE":54.2608,"ARG_OF_PERICENTER":272.7462,"MEAN_ANOMALY":14.2033,"EPHEMERIS_TYPE":0,"CLASSIFICATION_TYPE":"U","NORAD_CAT_ID":25588,"ELEMENT_SET_NO":999,"REV_AT_EPOCH":5574,"BSTAR":0.00021883,"MEAN_MOTION_DOT":5.8e-7,"MEAN_MOTION_DDOT":0},{"OBJECT_NAME":"FENGYUN 2A AKM","OBJECT_ID":"1997-029C","EPOCH":"2026-04-25T18:58:40.424160","MEAN_MOTION":1.02879027,"ECCENTRICITY":0.0224733,"INCLINATION":13.8578,"RA_OF_ASC_NODE":353.7304,"ARG_OF_PERICENTER":78.8338,"MEAN_ANOMALY":113.0765,"EPHEMERIS_TYPE":0,"CLASSIFICATION_TYPE":"U","NORAD_CAT_ID":25611,"ELEMENT_SET_NO":999,"REV_AT_EPOCH":4804,"BSTAR":0,"MEAN_MOTION_DOT":-2.36e-6,"MEAN_MOTION_DDOT":0},{"OBJECT_NAME":"SL-12 R/B(2)","OBJECT_ID":"1999-005D","EPOCH":"2026-04-25T04:05:12.003648","MEAN_MOTION":1.8959095,"ECCENTRICITY":0.53636664,"INCLINATION":16.4669,"RA_OF_ASC_NODE":186.0653,"ARG_OF_PERICENTER":271.4779,"MEAN_ANOMALY":20.7718,"EPHEMERIS_TYPE":0,"CLASSIFICATION_TYPE":"U","NORAD_CAT_ID":25629,"ELEMENT_SET_NO":999,"REV_AT_EPOCH":18826,"BSTAR":0,"MEAN_MOTION_DOT":2.8e-7,"MEAN_MOTION_DDOT":0}]
